NORAD_CAT_ID,OBJECT_NAME,OBJECT_TYPE,EPOCH,MEAN_MOTION,ECCENTRICITY,INCLINATION,RA_OF_ASC_NODE,ARG_OF_PERICENTER,MEAN_ANOMALY,BSTAR,MEAN_MOTION_DOT,MEAN_MOTION_DDOT,TLE_LINE0,TLE_LINE1,TLE_LINE2,SEMIMAJOR_AXIS,PERIOD,APOGEE,PERIGEE,DECAYED
55753.0,STARLINK-5617,PAYLOAD,2023-12-08 13:29:39,14.98331929,0.0002747,69.9978,157.3209,268.4423,91.6422,-3.4163e-07,-9.7e-07,0.0,0 STARLINK-5617,1 55753U 23028N   23342.56226077 -.00000097  00000-0 -34163-6 0  9990,2 55753  69.9978 157.3209 0002747 268.4423  91.6422 14.98331929 42897,6950.187,96.107,573.961,570.143,0.0
55753.0,STARLINK-5617,PAYLOAD,2023-12-09 11:55:30,14.98343069,0.0002906,69.9957,154.9635,271.9497,88.1329,0.0001872,2.142e-05,0.0,0 STARLINK-5617,1 55753U 23028N   23343.49688239  .00002142  00000-0  18720-3 0  9994,2 55753  69.9957 154.9635 0002906 271.9497  88.1329 14.98343069 43039,6950.152,96.106,574.037,569.998,0.0
55753.0,STARLINK-5617,PAYLOAD,2023-12-09 13:31:38,14.9834452,0.0002801,69.9981,154.7966,269.8906,90.1932,0.00019714,2.261e-05,0.0,0 STARLINK-5617,1 55753U 23028N   23343.56364063  .00002261  00000-0  19714-3 0  9994,2 55753  69.9981 154.7966 0002801 269.8906  90.1932 14.98344520 43043,6950.148,96.106,573.96,570.066,0.0
55753.0,STARLINK-5617,PAYLOAD,2023-12-10 11:57:30,14.98453719,0.0003048,70.0019,152.444,257.6467,102.4351,-0.0018605,-0.00022293,0.0,0 STARLINK-5617,1 55753U 23028N   23344.49827264 -.00022293  00000-0 -18605-2 0  9990,2 55753  70.0019 152.4440 0003048 257.6467 102.4351 14.98453719 43189,6949.81,96.099,573.794,569.557,0.0
55753.0,STARLINK-5617,PAYLOAD,2023-12-10 13:33:39,14.98342158,0.000258,69.9955,152.2707,245.9766,114.1123,-1.662e-05,-2.91e-06,0.0,0 STARLINK-5617,1 55753U 23028N   23344.56504014 -.00000291  00000-0 -16620-4 0  9994,2 55753  69.9955 152.2707 0002580 245.9766 114.1123 14.98342158 43193,6950.155,96.106,573.813,570.227,0.0
55753.0,STARLINK-5617,PAYLOAD,2023-12-10 19:58:12,14.98331442,0.0002821,69.9982,151.5993,265.8981,94.1855,-0.00012966,-1.64e-05,0.0,0 STARLINK-5617,1 55753U 23028N   23344.83208913 -.00001640  00000-0 -12966-3 0  9990,2 55753  69.9982 151.5993 0002821 265.8981  94.1855 14.98331442 43238,6950.188,96.107,574.014,570.093,0.0
55753.0,STARLINK-5617,PAYLOAD,2023-12-10 21:34:20,14.98331471,0.0002865,69.9983,151.4311,266.7077,93.3754,-0.00012928,-1.635e-05,0.0,0 STARLINK-5617,1 55753U 23028N   23344.89884877 -.00001635  00000-0 -12928-3 0  9997,2 55753  69.9983 151.4311 0002865 266.7077  93.3754 14.98331471 43248,6950.188,96.107,574.045,570.062,0.0
55753.0,STARLINK-5617,PAYLOAD,2023-12-11 13:35:41,14.98333321,0.000289,69.9986,149.7471,267.2134,92.8695,-0.00015972,-1.998e-05,0.0,0 STARLINK-5617,1 55753U 23028N   23345.56644768 -.00001998  00000-0 -15972-3 0  9999,2 55753  69.9986 149.7471 0002890 267.2134  92.8695 14.98333321 43341,6950.183,96.107,574.056,570.039,0.0
55753.0,STARLINK-5617,PAYLOAD,2023-12-11 20:00:13,14.98333503,0.0002921,69.9988,149.074,268.9126,91.1698,-0.00013813,-1.741e-05,0.0,0 STARLINK-5617,1 55753U 23028N   23345.83348669 -.00001741  00000-0 -13813-3 0  9998,2 55753  69.9988 149.0740 0002921 268.9126  91.1698 14.98333503 43380,6950.182,96.107,574.077,570.017,0.0
55753.0,STARLINK-5617,PAYLOAD,2023-12-12 13:37:42,14.9832177,0.0003082,69.9989,147.2224,270.8581,89.2224,6.0808e-05,6.32e-06,0.0,0 STARLINK-5617,1 55753U 23028N   23346.56785007  .00000632  00000-0  60808-4 0  9993,2 55753  69.9989 147.2224 0003082 270.8581  89.2224 14.98321770 43492,6950.218,96.108,574.225,569.941,0.0
55753.0,STARLINK-5617,PAYLOAD,2023-12-12 20:02:14,14.98323169,0.0002797,69.9998,146.5514,259.3053,100.7791,7.2897e-05,7.77e-06,0.0,0 STARLINK-5617,1 55753U 23028N   23346.83489025  .00000777  00000-0  72897-4 0  9995,2 55753  69.9998 146.5514 0002797 259.3053 100.7791 14.98323169 43531,6950.214,96.107,574.023,570.135,0.0
55753.0,STARLINK-5617,PAYLOAD,2023-12-13 13:39:43,14.9832347,0.0002799,70.0001,144.7004,258.3462,101.7383,6.8704e-06,-1.1e-07,0.0,0 STARLINK-5617,1 55753U 23028N   23347.56925537 -.00000011  00000-0  68704-5 0  9994,2 55753  70.0001 144.7004 0002799 258.3462 101.7383 14.98323470 43643,6950.213,96.107,574.023,570.133,0.0
55753.0,STARLINK-5617,PAYLOAD,2023-12-13 20:04:16,14.98320686,0.0002853,70.0,144.0263,261.3345,98.7491,1.8799e-05,1.31e-06,0.0,0 STARLINK-5617,1 55753U 23028N   23347.83629817  .00000131  00000-0  18799-4 0  9996,2 55753  70.0000 144.0263 0002853 261.3345  98.7491 14.98320686 43682,6950.222,96.108,574.07,570.104,0.0
55753.0,STARLINK-5617,PAYLOAD,2023-12-14 13:41:44,14.98323933,0.0002807,69.9991,142.1726,263.125,96.959,8.9637e-05,9.77e-06,0.0,0 STARLINK-5617,1 55753U 23028N   23348.57065622  .00000977  00000-0  89637-4 0  9993,2 55753  69.9991 142.1726 0002807 263.1250  96.9590 14.98323933 43795,6950.212,96.107,574.028,570.126,0.0
55753.0,STARLINK-5617,PAYLOAD,2023-12-14 20:06:16,14.98335258,0.0002786,69.9994,141.5004,259.989,100.0955,2.9445e-06,-5.8e-07,0.0,0 STARLINK-5617,1 55753U 23028N   23348.83769153 -.00000058  00000-0  29445-5 0  9995,2 55753  69.9994 141.5004 0002786 259.9890 100.0955 14.98335258 43839,6950.177,96.107,573.978,570.105,0.0
55753.0,STARLINK-5617,PAYLOAD,2023-12-15 12:07:37,14.98324745,0.0002931,69.9997,139.8179,262.9315,97.1511,6.73e-05,7.1e-06,0.0,0 STARLINK-5617,1 55753U 23028N   23349.50529795  .00000710  00000-0  67300-4 0  9991,2 55753  69.9997 139.8179 0002931 262.9315  97.1511 14.98324745 43937,6950.209,96.107,574.111,570.037,0.0
55753.0,STARLINK-5617,PAYLOAD,2023-12-15 13:43:45,14.98324891,0.0002937,69.9997,139.6495,262.9517,97.1308,6.7554e-05,7.13e-06,0.0,0 STARLINK-5617,1 55753U 23028N   23349.57205815  .00000713  00000-0  67554-4 0  9996,2 55753  69.9997 139.6495 0002937 262.9517  97.1308 14.98324891 43943,6950.209,96.107,574.115,570.032,0.0
55753.0,STARLINK-5617,PAYLOAD,2023-12-15 20:08:18,14.98325395,0.0002949,69.9997,138.9761,263.9764,96.1059,6.7377e-05,7.11e-06,0.0,0 STARLINK-5617,1 55753U 23028N   23349.83909879  .00000711  00000-0  67377-4 0  9997,2 55753  69.9997 138.9761 0002949 263.9764  96.1059 14.98325395 43985,6950.207,96.107,574.122,570.023,0.0
55753.0,STARLINK-5617,PAYLOAD,2023-12-16 12:09:38,14.98336023,0.0003023,69.9995,137.2923,266.3633,93.718,5.5242e-05,5.66e-06,0.0,0 STARLINK-5617,1 55753U 23028N   23350.50669245  .00000566  00000-0  55242-4 0  9999,2 55753  69.9995 137.2923 0003023 266.3633  93.7180 14.98336023 44081,6950.174,96.107,574.14,569.938,0.0
55753.0,STARLINK-5617,PAYLOAD,2023-12-16 13:45:46,14.98336152,0.0003025,69.9995,137.124,266.2878,93.7935,5.7047e-05,5.88e-06,0.0,0 STARLINK-5617,1 55753U 23028N   23350.57345230  .00000588  00000-0  57047-4 0  9990,2 55753  69.9995 137.1240 0003025 266.2878  93.7935 14.98336152 44096,6950.174,96.107,574.141,569.936,0.0
55753.0,STARLINK-5617,PAYLOAD,2023-12-16 20:10:18,14.98337631,0.000301,69.9995,136.4509,266.3679,93.7136,7.2793e-05,7.76e-06,0.0,0 STARLINK-5617,1 55753U 23028N   23350.84049009  .00000776  00000-0  72793-4 0  9999,2 55753  69.9995 136.4509 0003010 266.3679  93.7136 14.98337631 44131,6950.169,96.107,574.126,569.942,0.0
55753.0,STARLINK-5617,PAYLOAD,2023-12-17 12:11:39,14.98328376,0.0002927,69.9998,134.7681,262.6733,97.4094,4.4487e-05,4.38e-06,0.0,0 STARLINK-5617,1 55753U 23028N   23351.50809569  .00000438  00000-0  44487-4 0  9992,2 55753  69.9998 134.7681 0002927 262.6733  97.4094 14.98328376 44233,6950.198,96.107,574.097,570.029,0.0
55753.0,STARLINK-5617,PAYLOAD,2023-12-17 13:47:47,14.98328632,0.0002926,69.9998,134.5997,262.7033,97.3794,4.7132e-05,4.69e-06,0.0,0 STARLINK-5617,1 55753U 23028N   23351.57485563  .00000469  00000-0  47132-4 0  9997,2 55753  69.9998 134.5997 0002926 262.7033  97.3794 14.98328632 44246,6950.197,96.107,574.096,570.028,0.0
55753.0,STARLINK-5617,PAYLOAD,2023-12-17 20:12:18,14.98382702,0.0002652,69.9999,133.9265,268.7108,91.3747,-0.00086192,-0.00010376,0.0,0 STARLINK-5617,1 55753U 23028N   23351.84187966 -.00010376  00000-0 -86192-3 0  9991,2 55753  69.9999 133.9265 0002652 268.7108  91.3747 14.98382702 44287,6950.03,96.104,573.738,570.052,0.0
55753.0,STARLINK-5617,PAYLOAD,2023-12-18 12:13:39,14.98337934,0.0002867,70.0,132.2435,259.245,100.8387,4.6853e-05,4.66e-06,0.0,0 STARLINK-5617,1 55753U 23028N   23352.50948806  .00000466  00000-0  46853-4 0  9991,2 55753  70.0000 132.2435 0002867 259.2450 100.8387 14.98337934 44381,6950.168,96.106,574.026,570.041,0.0
55753.0,STARLINK-5617,PAYLOAD,2023-12-18 13:49:47,14.98337946,0.0002867,70.0,132.0752,259.3696,100.714,4.639e-05,4.61e-06,0.0,0 STARLINK-5617,1 55753U 23028N   23352.57624764  .00000461  00000-0  46390-4 0  9993,2 55753  70.0000 132.0752 0002867 259.3696 100.7140 14.98337946 44394,6950.168,96.106,574.026,570.041,0.0
55753.0,STARLINK-5617,PAYLOAD,2023-12-18 18:38:11,14.98338323,0.0002865,70.0001,131.5703,260.4758,99.6078,4.8928e-05,4.91e-06,0.0,0 STARLINK-5617,1 55753U 23028N   23352.77652653  .00000491  00000-0  48928-4 0  9995,2 55753  70.0001 131.5703 0002865 260.4758  99.6078 14.98338323 44425,6950.167,96.106,574.023,570.041,0.0
55753.0,STARLINK-5617,PAYLOAD,2023-12-19 12:15:41,14.98327988,0.0002828,70.0002,129.7188,258.49,101.5942,2.2832e-05,1.79e-06,0.0,0 STARLINK-5617,1 55753U 23028N   23353.51089286  .00000179  00000-0  22832-4 0  9993,2 55753  70.0002 129.7188 0002828 258.4900 101.5942 14.98327988 44537,6950.199,96.107,574.03,570.099,0.0
55753.0,STARLINK-5617,PAYLOAD,2023-12-19 13:51:49,14.98327817,0.0002832,70.0002,129.5506,258.1973,101.8869,1.9232e-05,1.36e-06,0.0,0 STARLINK-5617,1 55753U 23028N   23353.57765308  .00000136  00000-0  19232-4 0  9998,2 55753  70.0002 129.5506 0002832 258.1973 101.8869 14.98327817 44544,6950.2,96.107,574.033,570.096,0.0
55753.0,STARLINK-5617,PAYLOAD,2023-12-20 12:17:42,14.98327625,0.0002711,70.0009,127.1951,252.0719,108.0144,-3.3987e-05,-4.98e-06,0.0,0 STARLINK-5617,1 55753U 23028N   23354.51229574 -.00000498  00000-0 -33987-4 0  9999,2 55753  70.0009 127.1951 0002711 252.0719 108.0144 14.98327625 44683,6950.2,96.107,573.949,570.181,0.0
